{
  "type": "FeatureCollection",
  "features": [
    {
      "type": "Feature",
      "properties": {
        "norad_id": 66517,
        "name": "STARLINK-35937",
        "group": "last-30-days",
        "lat": -15.926055304058435,
        "lon": -92.01881793708812,
        "alt_km": 416.9029573856333,
        "timestamp": "2025-12-09T23:33:22.608145+00:00",
        "meta_object_name": "STARLINK-35937",
        "meta_object_id": "2025-265B",
        "meta_epoch": "2025-12-09T14:00:01.999872",
        "meta_mean_motion": 15.51916633,
        "meta_eccentricity": 0.00015912,
        "meta_inclination": 42.9999,
        "meta_ra_of_asc_node": 72.4811,
        "meta_arg_of_pericenter": 286.6198,
        "meta_mean_anomaly": 211.0088,
        "meta_ephemeris_type": 0,
        "meta_classification_type": "U",
        "meta_norad_cat_id": 66517,
        "meta_element_set_no": 999,
        "meta_rev_at_epoch": 448,
        "meta_bstar": -0.031154692,
        "meta_mean_motion_dot": -0.017122,
        "meta_mean_motion_ddot": 0,
        "tle_line1": "1 66517U 25265B   25343.58335648 -.01712200  00000+0 -31155-1 0  9994",
        "tle_line2": "2 66517  42.9999  72.4811 0001591 286.6198 211.0088 15.51916633  4484"
      },
      "geometry": {
        "type": "Point",
        "coordinates": [
          -92.01881793708812,
          -15.926055304058435
        ]
      }
    },
    {
      "type": "Feature",
      "properties": {
        "norad_id": 66518,
        "name": "STARLINK-35962",
        "group": "last-30-days",
        "lat": -17.16394428051822,
        "lon": -90.4985163796632,
        "alt_km": 416.97815413687476,
        "timestamp": "2025-12-09T23:33:22.608156+00:00",
        "meta_object_name": "STARLINK-35962",
        "meta_object_id": "2025-265C",
        "meta_epoch": "2025-12-09T14:00:01.999872",
        "meta_mean_motion": 15.51914773,
        "meta_eccentricity": 0.00015872,
        "meta_inclination": 42.9999,
        "meta_ra_of_asc_node": 72.476,
        "meta_arg_of_pericenter": 286.7379,
        "meta_mean_anomaly": 212.8082,
        "meta_ephemeris_type": 0,
        "meta_classification_type": "U",
        "meta_norad_cat_id": 66518,
        "meta_element_set_no": 999,
        "meta_rev_at_epoch": 448,
        "meta_bstar": -0.03109851,
        "meta_mean_motion_dot": -0.01709336,
        "meta_mean_motion_ddot": 0,
        "tle_line1": "1 66518U 25265C   25343.58335648 -.01709336  00000+0 -31099-1 0  9998",
        "tle_line2": "2 66518  42.9999  72.4760 0001587 286.7379 212.8082 15.51914773  4481"
      },
      "geometry": {
        "type": "Point",
        "coordinates": [
          -90.4985163796632,
          -17.16394428051822
        ]
      }
    },
    {
      "type": "Feature",
      "properties": {
        "norad_id": 66519,
        "name": "STARLINK-35931",
        "group": "last-30-days",
        "lat": -18.393330048104183,
        "lon": -88.9542971719348,
        "alt_km": 417.0688317890781,
        "timestamp": "2025-12-09T23:33:22.608167+00:00",
        "meta_object_name": "STARLINK-35931",
        "meta_object_id": "2025-265D",
        "meta_epoch": "2025-12-09T14:00:01.999872",
        "meta_mean_motion": 15.51946744,
        "meta_eccentricity": 0.00016904,
        "meta_inclination": 43.0002,
        "meta_ra_of_asc_node": 72.4707,
        "meta_arg_of_pericenter": 285.8,
        "meta_mean_anomaly": 215.6608,
        "meta_ephemeris_type": 0,
        "meta_classification_type": "U",
        "meta_norad_cat_id": 66519,
        "meta_element_set_no": 999,
        "meta_rev_at_epoch": 448,
        "meta_bstar": -0.032174265,
        "meta_mean_motion_dot": -0.01763854,
        "meta_mean_motion_ddot": 0,
        "tle_line1": "1 66519U 25265D   25343.58335648 -.01763854  00000+0 -32174-1 0  9999",
        "tle_line2": "2 66519  43.0002  72.4707 0001690 285.8000 215.6608 15.51946744  4484"
      },
      "geometry": {
        "type": "Point",
        "coordinates": [
          -88.9542971719348,
          -18.393330048104183
        ]
      }
    },
    {
      "type": "Feature",
      "properties": {
        "norad_id": 66520,
        "name": "STARLINK-35952",
        "group": "last-30-days",
        "lat": -19.60443841077289,
        "lon": -87.3942658186688,
        "alt_km": 417.1225840060679,
        "timestamp": "2025-12-09T23:33:22.608178+00:00",
        "meta_object_name": "STARLINK-35952",
        "meta_object_id": "2025-265E",
        "meta_epoch": "2025-12-09T14:00:01.999872",
        "meta_mean_motion": 15.51913451,
        "meta_eccentricity": 0.00015281,
        "meta_inclination": 43.0001,
        "meta_ra_of_asc_node": 72.466,
        "meta_arg_of_pericenter": 286.8536,
        "meta_mean_anomaly": 216.5273,
        "meta_ephemeris_type": 0,
        "meta_classification_type": "U",
        "meta_norad_cat_id": 66520,
        "meta_element_set_no": 999,
        "meta_rev_at_epoch": 448,
        "meta_bstar": -0.031065585,
        "meta_mean_motion_dot": -0.01707614,
        "meta_mean_motion_ddot": 0,
        "tle_line1": "1 66520U 25265E   25343.58335648 -.01707614  00000+0 -31066-1 0  9992",
        "tle_line2": "2 66520  43.0001  72.4660 0001528 286.8536 216.5273 15.51913451  4485"
      },
      "geometry": {
        "type": "Point",
        "coordinates": [
          -87.3942658186688,
          -19.60443841077289
        ]
      }
    },
    {
      "type": "Feature",
      "properties": {
        "norad_id": 66521,
        "name": "STARLINK-35915",
        "group": "last-30-days",
        "lat": -20.805181953324976,
        "lon": -85.80642193493611,
        "alt_km": 417.2077281943666,
        "timestamp": "2025-12-09T23:33:22.608190+00:00",
        "meta_object_name": "STARLINK-35915",
        "meta_object_id": "2025-265F",
        "meta_epoch": "2025-12-09T14:00:01.999872",
        "meta_mean_motion": 15.51913104,
        "meta_eccentricity": 0.00014263,
        "meta_inclination": 43.0001,
        "meta_ra_of_asc_node": 72.4611,
        "meta_arg_of_pericenter": 287.0234,
        "meta_mean_anomaly": 218.2763,
        "meta_ephemeris_type": 0,
        "meta_classification_type": "U",
        "meta_norad_cat_id": 66521,
        "meta_element_set_no": 999,
        "meta_rev_at_epoch": 448,
        "meta_bstar": -0.031095426,
        "meta_mean_motion_dot": -0.01709009,
        "meta_mean_motion_ddot": 0,
        "tle_line1": "1 66521U 25265F   25343.58335648 -.01709009  00000+0 -31095-1 0  9995",
        "tle_line2": "2 66521  43.0001  72.4611 0001426 287.0234 218.2763 15.51913104  4485"
      },
      "geometry": {
        "type": "Point",
        "coordinates": [
          -85.80642193493611,
          -20.805181953324976
        ]
      }
    },
    {
      "type": "Feature",
      "properties": {
        "norad_id": 66522,
        "name": "STARLINK-35946",
        "group": "last-30-days",
        "lat": -21.988699488203522,
        "lon": -84.19616004619719,
        "alt_km": 417.2580071940838,
        "timestamp": "2025-12-09T23:33:22.608201+00:00",
        "meta_object_name": "STARLINK-35946",
        "meta_object_id": "2025-265G",
        "meta_epoch": "2025-12-09T14:00:01.999872",
        "meta_mean_motion": 15.51909097,
        "meta_eccentricity": 0.00015045,
        "meta_inclination": 42.9999,
        "meta_ra_of_asc_node": 72.4562,
        "meta_arg_of_pericenter": 287.5849,
        "meta_mean_anomaly": 219.6307,
        "meta_ephemeris_type": 0,
        "meta_classification_type": "U",
        "meta_norad_cat_id": 66522,
        "meta_element_set_no": 999,
        "meta_rev_at_epoch": 448,
        "meta_bstar": -0.030929628,
        "meta_mean_motion_dot": -0.01700679,
        "meta_mean_motion_ddot": 0,
        "tle_line1": "1 66522U 25265G   25343.58335648 -.01700679  00000+0 -30930-1 0  9997",
        "tle_line2": "2 66522  42.9999  72.4562 0001504 287.5849 219.6307 15.51909097  4484"
      },
      "geometry": {
        "type": "Point",
        "coordinates": [
          -84.19616004619719,
          -21.988699488203522
        ]
      }
    },
    {
      "type": "Feature",
      "properties": {
        "norad_id": 66523,
        "name": "STARLINK-35969",
        "group": "last-30-days",
        "lat": -23.15775165792828,
        "lon": -82.55709538847903,
        "alt_km": 417.2539342071241,
        "timestamp": "2025-12-09T23:33:22.608212+00:00",
        "meta_object_name": "STARLINK-35969",
        "meta_object_id": "2025-265H",
        "meta_epoch": "2025-12-09T14:00:01.999872",
        "meta_mean_motion": 15.51909218,
        "meta_eccentricity": 0.0001496,
        "meta_inclination": 43.0002,
        "meta_ra_of_asc_node": 72.4513,
        "meta_arg_of_pericenter": 284.866,
        "meta_mean_anomaly": 224.2669,
        "meta_ephemeris_type": 0,
        "meta_classification_type": "U",
        "meta_norad_cat_id": 66523,
        "meta_element_set_no": 999,
        "meta_rev_at_epoch": 448,
        "meta_bstar": -0.030943499,
        "meta_mean_motion_dot": -0.01701363,
        "meta_mean_motion_ddot": 0,
        "tle_line1": "1 66523U 25265H   25343.58335648 -.01701363  00000+0 -30943-1 0  9993",
        "tle_line2": "2 66523  43.0002  72.4513 0001496 284.8660 224.2669 15.51909218  4487"
      },
      "geometry": {
        "type": "Point",
        "coordinates": [
          -82.55709538847903,
          -23.15775165792828
        ]
      }
    }
  ]
}